{
    "links": {
        "self": "http://www.neowsapp.com/rest/v1/neo/3748482?api_key=iIulBulltgU6a56xZRHN4H3l9WmuAYTsLGpBGhQ2"
    },
    "id": "3748482",
    "neo_reference_id": "3748482",
    "name": "(2016 FM13)",
    "designation": "2016 FM13",
    "nasa_jpl_url": "http://ssd.jpl.nasa.gov/sbdb.cgi?sstr=3748482",
    "absolute_magnitude_h": 24.0,
    "estimated_diameter": {
        "kilometers": {
            "estimated_diameter_min": 0.0421264611,
            "estimated_diameter_max": 0.0941976306
        },
        "meters": {
            "estimated_diameter_min": 42.1264610556,
            "estimated_diameter_max": 94.1976305719
        },
        "miles": {
            "estimated_diameter_min": 0.0261761612,
            "estimated_diameter_max": 0.0585316759
        },
        "feet": {
            "estimated_diameter_min": 138.2101784897,
            "estimated_diameter_max": 309.0473542854
        }
    },
    "is_potentially_hazardous_asteroid": false,
    "close_approach_data": [
        {
            "close_approach_date": "2013-08-09",
            "close_approach_date_full": "2013-Aug-09 14:16",
            "epoch_date_close_approach": 1376057760000,
            "relative_velocity": {
                "kilometers_per_second": "15.450530021",
                "kilometers_per_hour": "55621.9080754859",
                "miles_per_hour": "34561.290603904"
            },
            "miss_distance": {
                "astronomical": "0.2321170396",
                "lunar": "90.2935284044",
                "kilometers": "34724214.714865652",
                "miles": "21576626.5023519176"
            },
            "orbiting_body": "Earth"
        },
        {
            "close_approach_date": "2016-05-26",
            "close_approach_date_full": "2016-May-26 00:01",
            "epoch_date_close_approach": 1464220860000,
            "relative_velocity": {
                "kilometers_per_second": "8.8581238643",
                "kilometers_per_hour": "31889.2459113401",
                "miles_per_hour": "19814.7372719657"
            },
            "miss_distance": {
                "astronomical": "0.123213048",
                "lunar": "47.929875672",
                "kilometers": "18432409.53700776",
                "miles": "11453368.186556688"
            },
            "orbiting_body": "Earth"
        },
        {
            "close_approach_date": "2019-04-14",
            "close_approach_date_full": "2019-Apr-14 18:31",
            "epoch_date_close_approach": 1555266660000,
            "relative_velocity": {
                "kilometers_per_second": "17.7563673283",
                "kilometers_per_hour": "63922.9223818912",
                "miles_per_hour": "39719.2180766812"
            },
            "miss_distance": {
                "astronomical": "0.2438948952",
                "lunar": "94.8751142328",
                "kilometers": "36486156.825793224",
                "miles": "22671446.5626015312"
            },
            "orbiting_body": "Earth"
        },
        {
            "close_approach_date": "2110-08-07",
            "close_approach_date_full": "2110-Aug-07 09:19",
            "epoch_date_close_approach": 4436846340000,
            "relative_velocity": {
                "kilometers_per_second": "14.2096038393",
                "kilometers_per_hour": "51154.5738214249",
                "miles_per_hour": "31785.4628280959"
            },
            "miss_distance": {
                "astronomical": "0.2109383501",
                "lunar": "82.0550181889",
                "kilometers": "31555927.876274287",
                "miles": "19607944.3498556806"
            },
            "orbiting_body": "Earth"
        },
        {
            "close_approach_date": "2116-04-17",
            "close_approach_date_full": "2116-Apr-17 20:03",
            "epoch_date_close_approach": 4616596980000,
            "relative_velocity": {
                "kilometers_per_second": "16.8711582801",
                "kilometers_per_hour": "60736.1698083031",
                "miles_per_hour": "37739.0939567203"
            },
            "miss_distance": {
                "astronomical": "0.2253248872",
                "lunar": "87.6513811208",
                "kilometers": "33708123.183110264",
                "miles": "20945256.5015350832"
            },
            "orbiting_body": "Earth"
        }
    ],
    "orbital_data": {
        "orbit_id": "6",
        "orbit_determination_date": "2017-04-06 08:27:08",
        "first_observation_date": "2016-03-28",
        "last_observation_date": "2016-05-04",
        "data_arc_in_days": 37,
        "observations_used": 23,
        "orbit_uncertainty": "6",
        "minimum_orbit_intersection": ".064566",
        "jupiter_tisserand_invariant": "3.585",
        "epoch_osculation": "2459000.5",
        "eccentricity": ".5345929041276983",
        "semi_major_axis": "2.052318083327897",
        "inclination": "8.547789816447343",
        "ascending_node_longitude": "199.7778123906341",
        "orbital_period": "1073.903937109613",
        "perihelion_distance": ".9551633989678447",
        "perihelion_argument": "61.65478238824283",
        "aphelion_distance": "3.149472767687949",
        "perihelion_time": "2458624.323905083924",
        "mean_anomaly": "126.1038250164873",
        "mean_motion": ".3352255146479223",
        "equinox": "J2000",
        "orbit_class": {
            "orbit_class_type": "APO",
            "orbit_class_description": "Near-Earth asteroid orbits which cross the Earth’s orbit similar to that of 1862 Apollo",
            "orbit_class_range": "a (semi-major axis) > 1.0 AU; q (perihelion) < 1.017 AU"
        }
    },
    "is_sentry_object": false
}